LOGSATS                 
1 62689U 25009CJ  26068.72615147  .00266017  00000+0  19541-2 0  9995
2 62689  97.3907 158.8419 0005393 263.6729  96.3920 15.72310294 64215
STARLINK-11550 [DTC]    
1 63052U 25035A   26068.24706328  .00163283  00000+0  12493-2 0  9998
2 63052  43.0009  17.8004 0001532 278.4172  81.6522 15.70875066 61158
